{
"type": "FeatureCollection",
"name": "falla_armenia",
"crs": { "type": "name", "properties": { "name": "urn:ogc:def:crs:OGC:1.3:CRS84" } },
"features": [
{ "type": "Feature", "properties": { "Name": "Placemark", "FolderPath": "Document/Corredor_de_la_Falla_Armenia", "SymbolID": 0, "AltMode": 0, "Base": 0.0, "Clamped": -1, "Extruded": 0, "Snippet": null, "PopupInfo": null, "Shape_Leng": 0.73715483240599999, "Shape_Area": 0.00124510346717 }, "geometry": { "type": "Polygon", "coordinates": [ [ [ -75.672789572999989, 4.553993326000068, 0.0 ], [ -75.666187023999953, 4.566251059000024, 0.0 ], [ -75.66166543099996, 4.574709603000031, 0.0 ], [ -75.656163016999983, 4.584888321000051, 0.0 ], [ -75.652995954999938, 4.583279419000064, 0.0 ], [ -75.658522834999985, 4.572789832000069, 0.0 ], [ -75.662589825999987, 4.565215436000074, 0.0 ], [ -75.666561092999984, 4.557784318000074, 0.0 ], [ -75.67041252599995, 4.55063995200004, 0.0 ], [ -75.670962968999959, 4.549492893000036, 0.0 ], [ -75.672929375999956, 4.543349422000063, 0.0 ], [ -75.676069920999964, 4.533955158000026, 0.0 ], [ -75.679353955999943, 4.524250176000066, 0.0 ], [ -75.682040821999976, 4.515165910000064, 0.0 ], [ -75.684799682999937, 4.505770796000036, 0.0 ], [ -75.679805153999951, 4.512673967000069, 0.0 ], [ -75.672396653999954, 4.522992886000054, 0.0 ], [ -75.668094877999977, 4.528964389000066, 0.0 ], [ -75.666016856999988, 4.531232680000073, 0.0 ], [ -75.663460870999984, 4.534145852000051, 0.0 ], [ -75.658158249999985, 4.539923931000033, 0.0 ], [ -75.651923765999982, 4.546824308000055, 0.0 ], [ -75.648412230999952, 4.550764023000056, 0.0 ], [ -75.642658624999967, 4.555464650000033, 0.0 ], [ -75.639022775999933, 4.561939471000073, 0.0 ], [ -75.632348176999983, 4.574172625000074, 0.0 ], [ -75.629014294999934, 4.572611149000068, 0.0 ], [ -75.636622832999933, 4.55820327400005, 0.0 ], [ -75.63891986699997, 4.553758917000039, 0.0 ], [ -75.645466859999942, 4.548617397000044, 0.0 ], [ -75.647646410999982, 4.546289603000048, 0.0 ], [ -75.652035907999959, 4.541305154000042, 0.0 ], [ -75.658724167999935, 4.533903345000056, 0.0 ], [ -75.664128452999989, 4.527904190000072, 0.0 ], [ -75.665382551999983, 4.526471474000061, 0.0 ], [ -75.671207974999959, 4.518320295000024, 0.0 ], [ -75.679602055999965, 4.506705638000028, 0.0 ], [ -75.689041624999959, 4.49347821200007, 0.0 ], [ -75.697046776999969, 4.482400626000071, 0.0 ], [ -75.70170625999998, 4.476010864000045, 0.0 ], [ -75.705291050999961, 4.470755227000041, 0.0 ], [ -75.709264400999984, 4.464782683000067, 0.0 ], [ -75.712341407999986, 4.460183829000073, 0.0 ], [ -75.713387349999948, 4.458421677000047, 0.0 ], [ -75.718500171999949, 4.448324952000064, 0.0 ], [ -75.722315415999958, 4.440695510000069, 0.0 ], [ -75.727443100999949, 4.432093678000058, 0.0 ], [ -75.732355318999964, 4.42395782400007, 0.0 ], [ -75.741957913999954, 4.41159648200005, 0.0 ], [ -75.750951009999937, 4.400059082000041, 0.0 ], [ -75.753673864999939, 4.396619396000062, 0.0 ], [ -75.756405524999934, 4.398905409000065, 0.0 ], [ -75.744576749999965, 4.414168786000062, 0.0 ], [ -75.738634940999987, 4.421782656000062, 0.0 ], [ -75.735469786999943, 4.425903159000029, 0.0 ], [ -75.733946182999944, 4.428292411000029, 0.0 ], [ -75.728298671999937, 4.437760473000026, 0.0 ], [ -75.725579637999942, 4.442210612000054, 0.0 ], [ -75.724460616999977, 4.444463275000032, 0.0 ], [ -75.723121017999972, 4.447187700000029, 0.0 ], [ -75.721936955, 4.449565565000057, 0.0 ], [ -75.719257974999948, 4.454864889000021, 0.0 ], [ -75.718911103999972, 4.45556988900006, 0.0 ], [ -75.718833120999989, 4.455856784000048, 0.0 ], [ -75.71846259199998, 4.456466059000036, 0.0 ], [ -75.717936291999933, 4.457541486000025, 0.0 ], [ -75.716521398999987, 4.460354248000044, 0.0 ], [ -75.714533064999955, 4.463297498000031, 0.0 ], [ -75.711301852999952, 4.468152018000069, 0.0 ], [ -75.70787953599995, 4.473216646000026, 0.0 ], [ -75.706636646999982, 4.475127910000026, 0.0 ], [ -75.704246789999956, 4.478625295000029, 0.0 ], [ -75.703615337999963, 4.479829668000036, 0.0 ], [ -75.70082242899997, 4.484723192000047, 0.0 ], [ -75.699911388999965, 4.486278761000051, 0.0 ], [ -75.700020252999934, 4.485574850000035, 0.0 ], [ -75.700528067999983, 4.48421716200005, 0.0 ], [ -75.700844354999958, 4.483318374000021, 0.0 ], [ -75.701237318999972, 4.482199667000032, 0.0 ], [ -75.701371663999964, 4.481731091000029, 0.0 ], [ -75.701439112999935, 4.48134850100007, 0.0 ], [ -75.701439953999966, 4.480898809000053, 0.0 ], [ -75.701387900999975, 4.480695393000076, 0.0 ], [ -75.700773333999962, 4.480514836000054, 0.0 ], [ -75.700444646999983, 4.480399402000046, 0.0 ], [ -75.700129831999959, 4.480513624000025, 0.0 ], [ -75.69985055099994, 4.480742728000052, 0.0 ], [ -75.699564025999962, 4.481022049000046, 0.0 ], [ -75.699535250999986, 4.481115282000076, 0.0 ], [ -75.699184308999975, 4.481430361000037, 0.0 ], [ -75.699062622999975, 4.48150189100005, 0.0 ], [ -75.698811995999961, 4.481702345000031, 0.0 ], [ -75.698604496999963, 4.481780889000049, 0.0 ], [ -75.697925230999942, 4.481786781000039, 0.0 ], [ -75.697739059999947, 4.481929948000072, 0.0 ], [ -75.697588627999949, 4.482080359000065, 0.0 ], [ -75.697545027999979, 4.482453425000074, 0.0 ], [ -75.697687462999966, 4.482755084000075, 0.0 ], [ -75.697901747999936, 4.482870304000073, 0.0 ], [ -75.698123264999936, 4.482942481000066, 0.0 ], [ -75.698437826999964, 4.482964604000074, 0.0 ], [ -75.698809776999951, 4.482886370000074, 0.0 ], [ -75.699225164999973, 4.482521182000028, 0.0 ], [ -75.699361351999983, 4.482342040000049, 0.0 ], [ -75.700005446999967, 4.482027513000048, 0.0 ], [ -75.700047781999956, 4.482328983000059, 0.0 ], [ -75.700061450999954, 4.482666278000067, 0.0 ], [ -75.699960664999935, 4.483032061000074, 0.0 ], [ -75.699852593999935, 4.483469590000027, 0.0 ], [ -75.699687510999979, 4.483806548000075, 0.0 ], [ -75.699551269999972, 4.484014393000052, 0.0 ], [ -75.699543568999957, 4.484308592000048, 0.0 ], [ -75.699521714999946, 4.484523829000068, 0.0 ], [ -75.699434959999962, 4.485033157000032, 0.0 ], [ -75.699277012999971, 4.485377304000053, 0.0 ], [ -75.698953698999958, 4.486209103000022, 0.0 ], [ -75.698865020999961, 4.486472053000057, 0.0 ], [ -75.698883027999955, 4.487036594000074, 0.0 ], [ -75.699451358999966, 4.487064242000031, 0.0 ], [ -75.698393148999969, 4.488871083000049, 0.0 ], [ -75.695695600999954, 4.493707337000046, 0.0 ], [ -75.692348353999989, 4.499269492000053, 0.0 ], [ -75.690345289999982, 4.502700668000045, 0.0 ], [ -75.690201847999958, 4.502670803000058, 0.0 ], [ -75.690094743999964, 4.502591663000032, 0.0 ], [ -75.690052100999935, 4.502455240000074, 0.0 ], [ -75.690045970999961, 4.501917035000076, 0.0 ], [ -75.689818101999947, 4.501421462000053, 0.0 ], [ -75.689603922999936, 4.501248832000044, 0.0 ], [ -75.689132077999943, 4.501212051000039, 0.0 ], [ -75.688502928999981, 4.501174971000069, 0.0 ], [ -75.688166447999947, 4.501396782000029, 0.0 ], [ -75.68807320999997, 4.501547298000048, 0.0 ], [ -75.688008490999948, 4.501740923000057, 0.0 ], [ -75.687965181999971, 4.50195611700002, 0.0 ], [ -75.687900406999972, 4.502178447000063, 0.0 ], [ -75.687721284999952, 4.502371854000046, 0.0 ], [ -75.687377597999955, 4.502622353000049, 0.0 ], [ -75.687055484999973, 4.502808310000034, 0.0 ], [ -75.686933399999987, 4.503087938000021, 0.0 ], [ -75.686761154999942, 4.503424875000064, 0.0 ], [ -75.686782169999958, 4.503654544000028, 0.0 ], [ -75.686874589999945, 4.503934581000067, 0.0 ], [ -75.68704592399996, 4.504078427000024, 0.0 ], [ -75.687210281999967, 4.504128972000046, 0.0 ], [ -75.687403351999933, 4.504122166000059, 0.0 ], [ -75.687546465999958, 4.504065033000074, 0.0 ], [ -75.687832813999989, 4.50388618300002, 0.0 ], [ -75.688076384999988, 4.503642667000065, 0.0 ], [ -75.688377210999988, 4.503370558000029, 0.0 ], [ -75.688757070999941, 4.502897674000053, 0.0 ], [ -75.688878705999969, 4.502854851000052, 0.0 ], [ -75.688957234999975, 4.50291958400004, 0.0 ], [ -75.688978522999946, 4.503005735000045, 0.0 ], [ -75.688963759999979, 4.503249688000039, 0.0 ], [ -75.688934899999936, 4.503385975000072, 0.0 ], [ -75.688948724999989, 4.50363715900005, 0.0 ], [ -75.689055297999971, 4.503996158000064, 0.0 ], [ -75.689348013999961, 4.504243171000041, 0.0 ], [ -75.688809938999952, 4.50506088100002, 0.0 ], [ -75.687850615999935, 4.508197308000035, 0.0 ], [ -75.68746146999996, 4.50928533900003, 0.0 ], [ -75.687219884999934, 4.509736958000076, 0.0 ], [ -75.687140885999952, 4.509918596000034, 0.0 ], [ -75.686691500999984, 4.510601838000071, 0.0 ], [ -75.686643322999942, 4.51086964600006, 0.0 ], [ -75.686581084999943, 4.511010652000039, 0.0 ], [ -75.686521143999983, 4.511197110000069, 0.0 ], [ -75.686482485999989, 4.511472112000035, 0.0 ], [ -75.686357896999937, 4.51181392500007, 0.0 ], [ -75.686204328999963, 4.512354214000027, 0.0 ], [ -75.686102847999962, 4.513076394000052, 0.0 ], [ -75.685996300999989, 4.513956432000043, 0.0 ], [ -75.686019615999953, 4.51422916100006, 0.0 ], [ -75.686071901999981, 4.514360787000044, 0.0 ], [ -75.685278601999983, 4.517109626000035, 0.0 ], [ -75.684558330999948, 4.519405435000067, 0.0 ], [ -75.683731332999969, 4.519314864000023, 0.0 ], [ -75.683035292999989, 4.519351796000024, 0.0 ], [ -75.682529836999947, 4.519436933000065, 0.0 ], [ -75.68213829299998, 4.519780622000042, 0.0 ], [ -75.681937477999952, 4.520095973000025, 0.0 ], [ -75.681784333999985, 4.520411417000048, 0.0 ], [ -75.681783802999973, 4.520688883000048, 0.0 ], [ -75.681954989999952, 4.520909274000076, 0.0 ], [ -75.682183764999934, 4.520928850000075, 0.0 ], [ -75.682469888999947, 4.520871994000061, 0.0 ], [ -75.682813399999986, 4.520719571000029, 0.0 ], [ -75.68307114199996, 4.520547846000056, 0.0 ], [ -75.683252576999962, 4.520395109000049, 0.0 ], [ -75.683643664999977, 4.520290616000068, 0.0 ], [ -75.684278889999973, 4.520296124000026, 0.0 ], [ -75.681513601999939, 4.529110025000023, 0.0 ], [ -75.677078131999963, 4.542615990000058, 0.0 ], [ -75.675232325999957, 4.54804213400007, 0.0 ], [ -75.690986453999983, 4.548646722000058, 0.0 ], [ -75.699971878999975, 4.548974931000032, 0.0 ], [ -75.69977423499995, 4.552634277000038, 0.0 ], [ -75.675702092999984, 4.551630978000048, 0.0 ], [ -75.679760500999976, 4.560680471000069, 0.0 ], [ -75.676420705999988, 4.562109132000046, 0.0 ], [ -75.67332500699996, 4.555190063000055, 0.0 ], [ -75.672789572999989, 4.553993326000068, 0.0 ] ], [ [ -75.67332500699996, 4.555190063000055, 0.0 ], [ -75.675237378999952, 4.554785486000071, 0.0 ], [ -75.673349063999979, 4.55014141700002, 0.0 ], [ -75.671584017999976, 4.550769445000071, 0.0 ], [ -75.67332500699996, 4.555190063000055, 0.0 ] ], [ [ -75.666227663999962, 4.528512874000057, 0.0 ], [ -75.665463609999961, 4.529205046000072, 0.0 ], [ -75.665212951999933, 4.529407872000036, 0.0 ], [ -75.664914462999945, 4.529694321000022, 0.0 ], [ -75.664758724999956, 4.530112607000035, 0.0 ], [ -75.664710195999987, 4.530555021000055, 0.0 ], [ -75.664506741999958, 4.530997133000028, 0.0 ], [ -75.663814072999969, 4.531749239000021, 0.0 ], [ -75.663812887999939, 4.53235918200005, 0.0 ], [ -75.66396741799997, 4.532562800000051, 0.0 ], [ -75.664384525999935, 4.532563617000051, 0.0 ], [ -75.664754451999954, 4.532313185000021, 0.0 ], [ -75.665172349999978, 4.531907373000024, 0.0 ], [ -75.665650552999978, 4.53113092500007, 0.0 ], [ -75.666034296999953, 4.52989982400004, 0.0 ], [ -75.666440598999941, 4.529326551000054, 0.0 ], [ -75.666584302999979, 4.528968039000063, 0.0 ], [ -75.666584858999954, 4.528681008000035, 0.0 ], [ -75.666669206999984, 4.52820278300004, 0.0 ], [ -75.666227663999962, 4.528512874000057, 0.0 ] ] ] } },
{ "type": "Feature", "properties": { "Name": "Placemark", "FolderPath": "Document/Corredor_de_la_Falla_Armenia", "SymbolID": 0, "AltMode": 0, "Base": 0.0, "Clamped": -1, "Extruded": 0, "Snippet": null, "PopupInfo": null, "Shape_Leng": 0.0227662495732, "Shape_Area": 6.1633771127899998e-06 }, "geometry": { "type": "Polygon", "coordinates": [ [ [ -75.76469395099997, 4.425460397000052, 0.0 ], [ -75.764789635999989, 4.42567845700006, 0.0 ], [ -75.764803643999983, 4.425843533000034, 0.0 ], [ -75.764752925999971, 4.426223778000065, 0.0 ], [ -75.764688173999957, 4.426453300000048, 0.0 ], [ -75.764509934999978, 4.42683465500005, 0.0 ], [ -75.764429573999962, 4.42743480300004, 0.0 ], [ -75.764233357999956, 4.427966659000049, 0.0 ], [ -75.763722018999943, 4.430068359000074, 0.0 ], [ -75.763268785999969, 4.431653480000023, 0.0 ], [ -75.762795203999985, 4.432614239000031, 0.0 ], [ -75.762538218999964, 4.432384146000061, 0.0 ], [ -75.762488613999949, 4.432132892000027, 0.0 ], [ -75.76251794999996, 4.431716729000073, 0.0 ], [ -75.76260440599998, 4.431343724000044, 0.0 ], [ -75.762898418999953, 4.430849093000063, 0.0 ], [ -75.76302789999994, 4.430404403000068, 0.0 ], [ -75.763142827999957, 4.430103209000038, 0.0 ], [ -75.763214920999985, 4.429766059000031, 0.0 ], [ -75.763329683999984, 4.429558155000052, 0.0 ], [ -75.763702405999936, 4.429027784000027, 0.0 ], [ -75.763983193999934, 4.427923158000056, 0.0 ], [ -75.764040935999958, 4.427614685000037, 0.0 ], [ -75.764177741999958, 4.427069542000027, 0.0 ], [ -75.764136577999977, 4.426086338000061, 0.0 ], [ -75.763429429999974, 4.425704746000065, 0.0 ], [ -75.76265091199997, 4.425251266000032, 0.0 ], [ -75.761828698999977, 4.425249804000032, 0.0 ], [ -75.761277768999946, 4.425478460000022, 0.0 ], [ -75.761041896999984, 4.425544681000076, 0.0 ], [ -75.760900488999937, 4.425513669000054, 0.0 ], [ -75.760765037999988, 4.42529096800007, 0.0 ], [ -75.760793915999955, 4.425133144000029, 0.0 ], [ -75.760951600999988, 4.424910964000048, 0.0 ], [ -75.761153181999987, 4.424764964000076, 0.0 ], [ -75.76135794299995, 4.424674092000032, 0.0 ], [ -75.761531306999984, 4.424581894000028, 0.0 ], [ -75.76173877399998, 4.424510502000032, 0.0 ], [ -75.762754013999938, 4.42451948300004, 0.0 ], [ -75.763239900999963, 4.424685397000076, 0.0 ], [ -75.763489924999988, 4.42480783600007, 0.0 ], [ -75.763900305999982, 4.425025736000066, 0.0 ], [ -75.76469395099997, 4.425460397000052, 0.0 ] ] ] } },
{ "type": "Feature", "properties": { "Name": "Placemark", "FolderPath": "Document/Corredor_de_la_Falla_Armenia", "SymbolID": 0, "AltMode": 0, "Base": 0.0, "Clamped": -1, "Extruded": 0, "Snippet": null, "PopupInfo": null, "Shape_Leng": 0.00053195872349300001, "Shape_Area": 1.12088383346e-08 }, "geometry": { "type": "Polygon", "coordinates": [ [ [ -75.761153181999987, 4.424764964000076, 0.0 ], [ -75.761169864999943, 4.424648078000075, 0.0 ], [ -75.76135794299995, 4.424674092000032, 0.0 ], [ -75.761153181999987, 4.424764964000076, 0.0 ] ] ] } },
{ "type": "Feature", "properties": { "Name": "Placemark", "FolderPath": "Document/Corredor_de_la_Falla_Armenia", "SymbolID": 0, "AltMode": 0, "Base": 0.0, "Clamped": -1, "Extruded": 0, "Snippet": null, "PopupInfo": null, "Shape_Leng": 0.0020783598553000002, "Shape_Area": 1.36652410656e-07 }, "geometry": { "type": "Polygon", "coordinates": [ [ [ -75.76469395099997, 4.425460397000052, 0.0 ], [ -75.763900305999982, 4.425025736000066, 0.0 ], [ -75.764743839999937, 4.425142407000067, 0.0 ], [ -75.76469395099997, 4.425460397000052, 0.0 ] ] ] } },
{ "type": "Feature", "properties": { "Name": "Placemark", "FolderPath": "Document/Corredor_de_la_Falla_Armenia", "SymbolID": 0, "AltMode": 0, "Base": 0.0, "Clamped": -1, "Extruded": 0, "Snippet": null, "PopupInfo": null, "Shape_Leng": 0.020392827839899999, "Shape_Area": 9.5115057770299998e-06 }, "geometry": { "type": "Polygon", "coordinates": [ [ [ -75.701387900999975, 4.480695393000076, 0.0 ], [ -75.701439953999966, 4.480898809000053, 0.0 ], [ -75.701439112999935, 4.48134850100007, 0.0 ], [ -75.701371663999964, 4.481731091000029, 0.0 ], [ -75.701237318999972, 4.482199667000032, 0.0 ], [ -75.700844354999958, 4.483318374000021, 0.0 ], [ -75.700528067999983, 4.48421716200005, 0.0 ], [ -75.700020252999934, 4.485574850000035, 0.0 ], [ -75.699911388999965, 4.486278761000051, 0.0 ], [ -75.699451358999966, 4.487064242000031, 0.0 ], [ -75.698883027999955, 4.487036594000074, 0.0 ], [ -75.698865020999961, 4.486472053000057, 0.0 ], [ -75.698953698999958, 4.486209103000022, 0.0 ], [ -75.699277012999971, 4.485377304000053, 0.0 ], [ -75.699434959999962, 4.485033157000032, 0.0 ], [ -75.699521714999946, 4.484523829000068, 0.0 ], [ -75.699543568999957, 4.484308592000048, 0.0 ], [ -75.699551269999972, 4.484014393000052, 0.0 ], [ -75.699687510999979, 4.483806548000075, 0.0 ], [ -75.699852593999935, 4.483469590000027, 0.0 ], [ -75.699960664999935, 4.483032061000074, 0.0 ], [ -75.700061450999954, 4.482666278000067, 0.0 ], [ -75.700047781999956, 4.482328983000059, 0.0 ], [ -75.700005446999967, 4.482027513000048, 0.0 ], [ -75.699361351999983, 4.482342040000049, 0.0 ], [ -75.699225164999973, 4.482521182000028, 0.0 ], [ -75.698809776999951, 4.482886370000074, 0.0 ], [ -75.698437826999964, 4.482964604000074, 0.0 ], [ -75.698123264999936, 4.482942481000066, 0.0 ], [ -75.697901747999936, 4.482870304000073, 0.0 ], [ -75.697687462999966, 4.482755084000075, 0.0 ], [ -75.697545027999979, 4.482453425000074, 0.0 ], [ -75.697588627999949, 4.482080359000065, 0.0 ], [ -75.697739059999947, 4.481929948000072, 0.0 ], [ -75.697925230999942, 4.481786781000039, 0.0 ], [ -75.698604496999963, 4.481780889000049, 0.0 ], [ -75.698811995999961, 4.481702345000031, 0.0 ], [ -75.699062622999975, 4.48150189100005, 0.0 ], [ -75.699184308999975, 4.481430361000037, 0.0 ], [ -75.699535250999986, 4.481115282000076, 0.0 ], [ -75.699564025999962, 4.481022049000046, 0.0 ], [ -75.69985055099994, 4.480742728000052, 0.0 ], [ -75.700129831999959, 4.480513624000025, 0.0 ], [ -75.700444646999983, 4.480399402000046, 0.0 ], [ -75.700773333999962, 4.480514836000054, 0.0 ], [ -75.701387900999975, 4.480695393000076, 0.0 ] ] ] } },
{ "type": "Feature", "properties": { "Name": "Placemark", "FolderPath": "Document/Corredor_de_la_Falla_Armenia", "SymbolID": 0, "AltMode": 0, "Base": 0.0, "Clamped": -1, "Extruded": 0, "Snippet": null, "PopupInfo": null, "Shape_Leng": 0.014002733836900001, "Shape_Area": 7.4305885219000003e-06 }, "geometry": { "type": "Polygon", "coordinates": [ [ [ -75.690345289999982, 4.502700668000045, 0.0 ], [ -75.690587917999949, 4.502693068000042, 0.0 ], [ -75.690809682999941, 4.502636083000027, 0.0 ], [ -75.690966960999958, 4.502650735000032, 0.0 ], [ -75.691145593999977, 4.502715658000056, 0.0 ], [ -75.691180977999977, 4.50290947600007, 0.0 ], [ -75.691116122999972, 4.503174861000048, 0.0 ], [ -75.690908386999979, 4.50337539100002, 0.0 ], [ -75.690515124999934, 4.503374640000061, 0.0 ], [ -75.690257063999979, 4.503718591000052, 0.0 ], [ -75.689848916999949, 4.504026377000059, 0.0 ], [ -75.689533980999954, 4.504197997000063, 0.0 ], [ -75.689348013999961, 4.504243171000041, 0.0 ], [ -75.689055297999971, 4.503996158000064, 0.0 ], [ -75.688948724999989, 4.50363715900005, 0.0 ], [ -75.688934899999936, 4.503385975000072, 0.0 ], [ -75.688963759999979, 4.503249688000039, 0.0 ], [ -75.688978522999946, 4.503005735000045, 0.0 ], [ -75.688957234999975, 4.50291958400004, 0.0 ], [ -75.688878705999969, 4.502854851000052, 0.0 ], [ -75.688757070999941, 4.502897674000053, 0.0 ], [ -75.688377210999988, 4.503370558000029, 0.0 ], [ -75.688076384999988, 4.503642667000065, 0.0 ], [ -75.687832813999989, 4.50388618300002, 0.0 ], [ -75.687546465999958, 4.504065033000074, 0.0 ], [ -75.687403351999933, 4.504122166000059, 0.0 ], [ -75.687210281999967, 4.504128972000046, 0.0 ], [ -75.68704592399996, 4.504078427000024, 0.0 ], [ -75.686874589999945, 4.503934581000067, 0.0 ], [ -75.686782169999958, 4.503654544000028, 0.0 ], [ -75.686761154999942, 4.503424875000064, 0.0 ], [ -75.686933399999987, 4.503087938000021, 0.0 ], [ -75.687055484999973, 4.502808310000034, 0.0 ], [ -75.687377597999955, 4.502622353000049, 0.0 ], [ -75.687721284999952, 4.502371854000046, 0.0 ], [ -75.687900406999972, 4.502178447000063, 0.0 ], [ -75.687965181999971, 4.50195611700002, 0.0 ], [ -75.688008490999948, 4.501740923000057, 0.0 ], [ -75.68807320999997, 4.501547298000048, 0.0 ], [ -75.688166447999947, 4.501396782000029, 0.0 ], [ -75.688502928999981, 4.501174971000069, 0.0 ], [ -75.689132077999943, 4.501212051000039, 0.0 ], [ -75.689603922999936, 4.501248832000044, 0.0 ], [ -75.689818101999947, 4.501421462000053, 0.0 ], [ -75.690045970999961, 4.501917035000076, 0.0 ], [ -75.690052100999935, 4.502455240000074, 0.0 ], [ -75.690094743999964, 4.502591663000032, 0.0 ], [ -75.690201847999958, 4.502670803000058, 0.0 ], [ -75.690345289999982, 4.502700668000045, 0.0 ] ] ] } },
{ "type": "Feature", "properties": { "Name": "Placemark", "FolderPath": "Document/Corredor_de_la_Falla_Armenia", "SymbolID": 0, "AltMode": 0, "Base": 0.0, "Clamped": -1, "Extruded": 0, "Snippet": null, "PopupInfo": null, "Shape_Leng": 0.0077783689329500002, "Shape_Area": 2.44262259416e-06 }, "geometry": { "type": "Polygon", "coordinates": [ [ [ -75.687363059999939, 4.514659900000026, 0.0 ], [ -75.687172912999984, 4.514382067000042, 0.0 ], [ -75.687155119999943, 4.513712282000029, 0.0 ], [ -75.687261082999953, 4.513138414000025, 0.0 ], [ -75.687443480999946, 4.51247858000005, 0.0 ], [ -75.687625603999948, 4.511962264000033, 0.0 ], [ -75.687931483999989, 4.511541863000048, 0.0 ], [ -75.688341942999955, 4.511274749000052, 0.0 ], [ -75.688494263999985, 4.511389855000061, 0.0 ], [ -75.688541604999955, 4.511562167000022, 0.0 ], [ -75.688569696999934, 4.511830122000049, 0.0 ], [ -75.688492936999978, 4.512088308000045, 0.0 ], [ -75.688387537999972, 4.512365574000057, 0.0 ], [ -75.688263053999947, 4.512652371000058, 0.0 ], [ -75.688128871999936, 4.513025261000053, 0.0 ], [ -75.687975584999947, 4.513417251000021, 0.0 ], [ -75.687850973999957, 4.513771023000061, 0.0 ], [ -75.687696740999968, 4.514660539000033, 0.0 ], [ -75.687363059999939, 4.514659900000026, 0.0 ] ] ] } },
{ "type": "Feature", "properties": { "Name": "Placemark", "FolderPath": "Document/Corredor_de_la_Falla_Armenia", "SymbolID": 0, "AltMode": 0, "Base": 0.0, "Clamped": -1, "Extruded": 0, "Snippet": null, "PopupInfo": null, "Shape_Leng": 0.020102986295699999, "Shape_Area": 7.7475551067400007e-06 }, "geometry": { "type": "Polygon", "coordinates": [ [ [ -75.686071901999981, 4.514360787000044, 0.0 ], [ -75.686019615999953, 4.51422916100006, 0.0 ], [ -75.685996300999989, 4.513956432000043, 0.0 ], [ -75.686102847999962, 4.513076394000052, 0.0 ], [ -75.686204328999963, 4.512354214000027, 0.0 ], [ -75.686357896999937, 4.51181392500007, 0.0 ], [ -75.686482485999989, 4.511472112000035, 0.0 ], [ -75.686521143999983, 4.511197110000069, 0.0 ], [ -75.686581084999943, 4.511010652000039, 0.0 ], [ -75.686643322999942, 4.51086964600006, 0.0 ], [ -75.686691500999984, 4.510601838000071, 0.0 ], [ -75.687140885999952, 4.509918596000034, 0.0 ], [ -75.687219884999934, 4.509736958000076, 0.0 ], [ -75.68746146999996, 4.50928533900003, 0.0 ], [ -75.687850615999935, 4.508197308000035, 0.0 ], [ -75.688215686999968, 4.50747606300007, 0.0 ], [ -75.688407432999952, 4.506911925000054, 0.0 ], [ -75.688694895999959, 4.506147044000045, 0.0 ], [ -75.688905216999956, 4.505841274000034, 0.0 ], [ -75.689220080999974, 4.505707926000071, 0.0 ], [ -75.689515532999962, 4.505756330000054, 0.0 ], [ -75.689667744999952, 4.50592884200006, 0.0 ], [ -75.689762518999942, 4.506225627000049, 0.0 ], [ -75.689733427999954, 4.506483905000039, 0.0 ], [ -75.68959009699995, 4.506655853000041, 0.0 ], [ -75.689360707999981, 4.506961587000035, 0.0 ], [ -75.689112033999947, 4.507382098000051, 0.0 ], [ -75.688939464999976, 4.507888865000041, 0.0 ], [ -75.688719154999944, 4.508433813000067, 0.0 ], [ -75.688517784999988, 4.509045772000036, 0.0 ], [ -75.688364518999947, 4.509428193000076, 0.0 ], [ -75.687906065999982, 4.509867437000025, 0.0 ], [ -75.687724215999935, 4.510240236000072, 0.0 ], [ -75.687427415999935, 4.510899851000033, 0.0 ], [ -75.687254462999988, 4.511607542000036, 0.0 ], [ -75.686898072999952, 4.513520432000064, 0.0 ], [ -75.68657172099995, 4.514677518000042, 0.0 ], [ -75.686276392999957, 4.514562137000041, 0.0 ], [ -75.686071901999981, 4.514360787000044, 0.0 ] ] ] } },
{ "type": "Feature", "properties": { "Name": "Placemark", "FolderPath": "Document/Corredor_de_la_Falla_Armenia", "SymbolID": 0, "AltMode": 0, "Base": 0.0, "Clamped": -1, "Extruded": 0, "Snippet": null, "PopupInfo": null, "Shape_Leng": 0.0138350470751, "Shape_Area": 5.5462961908299996e-06 }, "geometry": { "type": "Polygon", "coordinates": [ [ [ -75.686506163999979, 4.519061865000026, 0.0 ], [ -75.686572535999971, 4.519253350000042, 0.0 ], [ -75.686342829999944, 4.519721734000029, 0.0 ], [ -75.686122822999948, 4.520104025000023, 0.0 ], [ -75.685750601999985, 4.520313803000022, 0.0 ], [ -75.685311808999984, 4.520437342000037, 0.0 ], [ -75.684825729999943, 4.520359865000046, 0.0 ], [ -75.684278889999973, 4.520296124000026, 0.0 ], [ -75.683643664999977, 4.520290616000068, 0.0 ], [ -75.683252576999962, 4.520395109000049, 0.0 ], [ -75.68307114199996, 4.520547846000056, 0.0 ], [ -75.682813399999986, 4.520719571000029, 0.0 ], [ -75.682469888999947, 4.520871994000061, 0.0 ], [ -75.682183764999934, 4.520928850000075, 0.0 ], [ -75.681954989999952, 4.520909274000076, 0.0 ], [ -75.681783802999973, 4.520688883000048, 0.0 ], [ -75.681784333999985, 4.520411417000048, 0.0 ], [ -75.681937477999952, 4.520095973000025, 0.0 ], [ -75.68213829299998, 4.519780622000042, 0.0 ], [ -75.682529836999947, 4.519436933000065, 0.0 ], [ -75.683035292999989, 4.519351796000024, 0.0 ], [ -75.683731332999969, 4.519314864000023, 0.0 ], [ -75.684558330999948, 4.519405435000067, 0.0 ], [ -75.685180215999935, 4.519451600000025, 0.0 ], [ -75.685475983999936, 4.519337354000072, 0.0 ], [ -75.68575279199996, 4.51916566500006, 0.0 ], [ -75.685877060999985, 4.51899368200003, 0.0 ], [ -75.686087515999986, 4.518620940000062, 0.0 ], [ -75.686203033999959, 4.518037522000043, 0.0 ], [ -75.686470545999953, 4.517741432000037, 0.0 ], [ -75.686699173999955, 4.517837549000035, 0.0 ], [ -75.686746532999962, 4.518000293000057, 0.0 ], [ -75.686746022999955, 4.51826819300004, 0.0 ], [ -75.686631033999959, 4.51857414400007, 0.0 ], [ -75.686506163999979, 4.519061865000026, 0.0 ] ] ] } },
{ "type": "Feature", "properties": { "Name": "Placemark", "FolderPath": "Document/Corredor_de_la_Falla_Armenia", "SymbolID": 0, "AltMode": 0, "Base": 0.0, "Clamped": -1, "Extruded": 0, "Snippet": null, "PopupInfo": null, "Shape_Leng": 0.0135925356692, "Shape_Area": 9.2705701488099993e-06 }, "geometry": { "type": "Polygon", "coordinates": [ [ [ -75.675237378999952, 4.554785486000071, 0.0 ], [ -75.67332500699996, 4.555190063000055, 0.0 ], [ -75.671584017999976, 4.550769445000071, 0.0 ], [ -75.673349063999979, 4.55014141700002, 0.0 ], [ -75.675237378999952, 4.554785486000071, 0.0 ] ] ] } },
{ "type": "Feature", "properties": { "Name": "Placemark", "FolderPath": "Document/Corredor_de_la_Falla_Armenia", "SymbolID": 0, "AltMode": 0, "Base": 0.0, "Clamped": -1, "Extruded": 0, "Snippet": null, "PopupInfo": null, "Shape_Leng": 0.011082105473799999, "Shape_Area": 4.5365240397899998e-06 }, "geometry": { "type": "Polygon", "coordinates": [ [ [ -75.66396741799997, 4.532562800000051, 0.0 ], [ -75.663812887999939, 4.53235918200005, 0.0 ], [ -75.663814072999969, 4.531749239000021, 0.0 ], [ -75.664506741999958, 4.530997133000028, 0.0 ], [ -75.664710195999987, 4.530555021000055, 0.0 ], [ -75.664758724999956, 4.530112607000035, 0.0 ], [ -75.664914462999945, 4.529694321000022, 0.0 ], [ -75.665212951999933, 4.529407872000036, 0.0 ], [ -75.665463609999961, 4.529205046000072, 0.0 ], [ -75.666227663999962, 4.528512874000057, 0.0 ], [ -75.666669206999984, 4.52820278300004, 0.0 ], [ -75.666584858999954, 4.528681008000035, 0.0 ], [ -75.666584302999979, 4.528968039000063, 0.0 ], [ -75.666440598999941, 4.529326551000054, 0.0 ], [ -75.666034296999953, 4.52989982400004, 0.0 ], [ -75.665650552999978, 4.53113092500007, 0.0 ], [ -75.665172349999978, 4.531907373000024, 0.0 ], [ -75.664754451999954, 4.532313185000021, 0.0 ], [ -75.664384525999935, 4.532563617000051, 0.0 ], [ -75.66396741799997, 4.532562800000051, 0.0 ] ] ] } }
]
}
